KUIPER-00112            
1 65150U 25171U   25267.19537611  .00074133  00000+0  20625-2 0  9992
2 65150  51.8774 194.1529 0004728 319.2237  40.8394 15.36152875  7952
KUIPER-00114            
1 65151U 25171V   25267.33336806 -.00910101  00000+0 -50939-1 0  9998
2 65151  51.8894 195.0020 0003263 293.3278  36.1314 15.15677396  4967
KUIPER-00115            
1 65152U 25171W   25267.33336806 -.00315555  00000+0 -99296-2 0  9991
2 65152  51.8765 193.3337 0006759 273.0943 204.1666 15.33678370  5639
KUIPER-00116            
1 65153U 25171X   25267.33336806  .00039401  00000+0  17873-2 0  9994
2 65153  51.8854 194.2455 0004088 272.5437  85.6914 15.20433854  5219
KUIPER-00118            
1 65154U 25171Y   25267.33336806 -.00670227  00000+0 -36024-1 0  9992
2 65154  51.8836 194.8692 0003421 288.4822 170.0479 15.16729424  5292
KUIPER-00119            
1 65155U 25171Z   25265.54868336  .00108335  00000+0  29368-2 0  9990
2 65155  51.8754 201.8660 0005393 277.3215  82.7159 15.36766200  7706
